{
  "type": "FeatureCollection",
  "features": [
    {
      "type": "Feature",
      "geometry": {
        "type": "LineString",
        "coordinates": [
          [
            126.852,
            35.152
          ],
          [
            126.8521,
            35.1521
          ]
        ]
      },
      "properties": {
        "link_id": "7db85aaa-1848-4c7a-b0b2-83a9a7d54a22",
        "crossing_key": "CW-GJ-003",
        "crossing_road": "광주광역시 서구 치평로 30",
        "signal_key": "TL-GJ-103",
        "signal_type": "보행등",
        "approach_bearing_deg": 0.0,
        "distance_m": 14.36,
        "association_status": "REVIEW_REQUIRED",
        "ai_allowed": false,
        "match_features": {
          "distance_m": 14.36,
          "road_match": "UNKNOWN",
          "distance_tier": "20m",
          "id_similarity": 0.5,
          "bearing_diff_deg": 39.3,
          "approach_bearing_deg": 0.0,
          "relative_signal_bearing_deg": 39.3
        }
      }
    },
    {
      "type": "Feature",
      "geometry": {
        "type": "LineString",
        "coordinates": [
          [
            126.85,
            35.15
          ],
          [
            126.8501,
            35.1501
          ]
        ]
      },
      "properties": {
        "link_id": "03909208-0481-4fa9-9c6f-0c67fffe6dc4",
        "crossing_key": "CW-001",
        "crossing_road": "상무대로",
        "signal_key": "TL-GJ-101",
        "signal_type": "보행등",
        "approach_bearing_deg": 0.0,
        "distance_m": 14.36,
        "association_status": "REVIEW_REQUIRED",
        "ai_allowed": false,
        "match_features": {
          "distance_m": 14.36,
          "road_match": "UNKNOWN",
          "distance_tier": "20m",
          "id_similarity": 0.0,
          "bearing_diff_deg": 39.3,
          "approach_bearing_deg": 0.0,
          "relative_signal_bearing_deg": 39.3
        }
      }
    },
    {
      "type": "Feature",
      "geometry": {
        "type": "LineString",
        "coordinates": [
          [
            126.85,
            35.15
          ],
          [
            126.8501,
            35.1501
          ]
        ]
      },
      "properties": {
        "link_id": "d5cab0ed-b838-4bd1-bdf9-a075db3be20d",
        "crossing_key": "CW-GJ-001",
        "crossing_road": "광주광역시 서구 상무대로 100",
        "signal_key": "TL-GJ-101",
        "signal_type": "보행등",
        "approach_bearing_deg": 0.0,
        "distance_m": 14.36,
        "association_status": "REVIEW_REQUIRED",
        "ai_allowed": false,
        "match_features": {
          "distance_m": 14.36,
          "road_match": "UNKNOWN",
          "distance_tier": "20m",
          "id_similarity": 0.5,
          "bearing_diff_deg": 39.3,
          "approach_bearing_deg": 0.0,
          "relative_signal_bearing_deg": 39.3
        }
      }
    },
    {
      "type": "Feature",
      "geometry": {
        "type": "LineString",
        "coordinates": [
          [
            126.8505,
            35.1505
          ],
          [
            126.8506,
            35.1506
          ]
        ]
      },
      "properties": {
        "link_id": "03eda81e-a13c-4366-8867-fe648abaaf7e",
        "crossing_key": "CW-GJ-002",
        "crossing_road": "광주광역시 서구 시청로 20",
        "signal_key": "TL-GJ-102",
        "signal_type": "보행등",
        "approach_bearing_deg": 0.0,
        "distance_m": 14.36,
        "association_status": "REVIEW_REQUIRED",
        "ai_allowed": false,
        "match_features": {
          "distance_m": 14.36,
          "road_match": "UNKNOWN",
          "distance_tier": "20m",
          "id_similarity": 0.5,
          "bearing_diff_deg": 39.3,
          "approach_bearing_deg": 0.0,
          "relative_signal_bearing_deg": 39.3
        }
      }
    },
    {
      "type": "Feature",
      "geometry": {
        "type": "LineString",
        "coordinates": [
          [
            126.8505,
            35.1503
          ],
          [
            126.8506,
            35.1506
          ]
        ]
      },
      "properties": {
        "link_id": "04d5c48b-4539-4ca5-adb5-cfc8f588c57d",
        "crossing_key": "CW-002",
        "crossing_road": "시청로",
        "signal_key": "TL-GJ-102",
        "signal_type": "보행등",
        "approach_bearing_deg": 0.0,
        "distance_m": 34.58,
        "association_status": "REVIEW_REQUIRED",
        "ai_allowed": false,
        "match_features": {
          "distance_m": 34.58,
          "road_match": "UNKNOWN",
          "distance_tier": ">30m",
          "id_similarity": 0.0,
          "bearing_diff_deg": 15.2,
          "approach_bearing_deg": 0.0,
          "relative_signal_bearing_deg": 15.2
        }
      }
    },
    {
      "type": "Feature",
      "geometry": {
        "type": "LineString",
        "coordinates": [
          [
            126.8505,
            35.1503
          ],
          [
            126.8501,
            35.1501
          ]
        ]
      },
      "properties": {
        "link_id": "64c4647c-1bec-48ac-b99e-26af456c0ffd",
        "crossing_key": "CW-002",
        "crossing_road": "시청로",
        "signal_key": "TL-GJ-101",
        "signal_type": "보행등",
        "approach_bearing_deg": 180.0,
        "distance_m": 42.63,
        "association_status": "REVIEW_REQUIRED",
        "ai_allowed": false,
        "match_features": {
          "distance_m": 42.63,
          "road_match": "UNKNOWN",
          "distance_tier": ">30m",
          "id_similarity": 0.0,
          "bearing_diff_deg": 58.6,
          "approach_bearing_deg": 180.0,
          "relative_signal_bearing_deg": 238.6
        }
      }
    },
    {
      "type": "Feature",
      "geometry": {
        "type": "LineString",
        "coordinates": [
          [
            126.8505,
            35.1505
          ],
          [
            126.8501,
            35.1501
          ]
        ]
      },
      "properties": {
        "link_id": "3b07e217-5341-4d9c-ac13-a3b995c4d211",
        "crossing_key": "CW-GJ-002",
        "crossing_road": "광주광역시 서구 시청로 20",
        "signal_key": "TL-GJ-101",
        "signal_type": "보행등",
        "approach_bearing_deg": 180.0,
        "distance_m": 57.45,
        "association_status": "REVIEW_REQUIRED",
        "ai_allowed": false,
        "match_features": {
          "distance_m": 57.45,
          "road_match": "UNKNOWN",
          "distance_tier": ">30m",
          "id_similarity": 0.5,
          "bearing_diff_deg": 39.3,
          "approach_bearing_deg": 180.0,
          "relative_signal_bearing_deg": 219.3
        }
      }
    },
    {
      "type": "Feature",
      "geometry": {
        "type": "LineString",
        "coordinates": [
          [
            126.85,
            35.15
          ],
          [
            126.8506,
            35.1506
          ]
        ]
      },
      "properties": {
        "link_id": "b9642c60-2710-46b4-9092-8c1d898da1cf",
        "crossing_key": "CW-GJ-001",
        "crossing_road": "광주광역시 서구 상무대로 100",
        "signal_key": "TL-GJ-102",
        "signal_type": "보행등",
        "approach_bearing_deg": 0.0,
        "distance_m": 86.18,
        "association_status": "REVIEW_REQUIRED",
        "ai_allowed": false,
        "match_features": {
          "distance_m": 86.18,
          "road_match": "UNKNOWN",
          "distance_tier": ">30m",
          "id_similarity": 0.5,
          "bearing_diff_deg": 39.3,
          "approach_bearing_deg": 0.0,
          "relative_signal_bearing_deg": 39.3
        }
      }
    },
    {
      "type": "Feature",
      "geometry": {
        "type": "LineString",
        "coordinates": [
          [
            126.85,
            35.15
          ],
          [
            126.8506,
            35.1506
          ]
        ]
      },
      "properties": {
        "link_id": "942794f9-0c9d-473d-a67a-01dc191e4e26",
        "crossing_key": "CW-001",
        "crossing_road": "상무대로",
        "signal_key": "TL-GJ-102",
        "signal_type": "보행등",
        "approach_bearing_deg": 0.0,
        "distance_m": 86.18,
        "association_status": "REVIEW_REQUIRED",
        "ai_allowed": false,
        "match_features": {
          "distance_m": 86.18,
          "road_match": "UNKNOWN",
          "distance_tier": ">30m",
          "id_similarity": 0.0,
          "bearing_diff_deg": 39.3,
          "approach_bearing_deg": 0.0,
          "relative_signal_bearing_deg": 39.3
        }
      }
    }
  ]
}